[
    {
        "Altitude(m)": 702986.927407959,
        "Argument of Periapsis(deg)": 0.004556048474650827,
        "Eccentricity": 0.0,
        "Inclination(deg)": 45.0,
        "Latitude(deg)": 19.51451102469854,
        "Longitude(deg)": -15.93141462701804,
        "Mean Anomaly(deg)": -208.11401334100768,
        "RAAN(deg)": 284.9956992234167,
        "Satellite Name": "Constellation 1 1263",
        "Satellite Number": 1263,
        "Semi-Major Axis(m)": 7083131.272910544,
        "Time(s)": 76
    },
    {
        "Altitude(m)": 702983.8136725259,
        "Argument of Periapsis(deg)": 0.004615996480896233,
        "Eccentricity": 0.0,
        "Inclination(deg)": 45.0,
        "Latitude(deg)": 19.474090729899384,
        "Longitude(deg)": -15.887312300697634,
        "Mean Anomaly(deg)": -208.05331220075777,
        "RAAN(deg)": 284.99564263425117,
        "Satellite Name": "Constellation 1 1263",
        "Satellite Number": 1263,
        "Semi-Major Axis(m)": 7083131.272910544,
        "Time(s)": 77
    },
    {
        "Altitude(m)": 702980.7142559579,
        "Argument of Periapsis(deg)": 0.004675944487141638,
        "Eccentricity": 0.0,
        "Inclination(deg)": 45.0,
        "Latitude(deg)": 19.433657456891027,
        "Longitude(deg)": -15.84323388885864,
        "Mean Anomaly(deg)": -207.99261106050784,
        "RAAN(deg)": 284.99558604508553,
        "Satellite Name": "Constellation 1 1263",
        "Satellite Number": 1263,
        "Semi-Major Axis(m)": 7083131.272910544,
        "Time(s)": 78
    },
    {
        "Altitude(m)": 702977.6291890877,
        "Argument of Periapsis(deg)": 0.004735892493387044,
        "Eccentricity": 0.0,
        "Inclination(deg)": 45.0,
        "Latitude(deg)": 19.393211240993914,
        "Longitude(deg)": -15.799179333709397,
        "Mean Anomaly(deg)": -207.93190992025802,
        "RAAN(deg)": 284.99552945592,
        "Satellite Name": "Constellation 1 1263",
        "Satellite Number": 1263,
        "Semi-Major Axis(m)": 7083131.272910544,
        "Time(s)": 79
    },
    {
        "Altitude(m)": 702974.558502689,
        "Argument of Periapsis(deg)": 0.004795840499632449,
        "Eccentricity": 0.0,
        "Inclination(deg)": 45.0,
        "Latitude(deg)": 19.35275211748114,
        "Longitude(deg)": -15.75514857748741,
        "Mean Anomaly(deg)": -207.87120878000806,
        "RAAN(deg)": 284.9954728667544,
        "Satellite Name": "Constellation 1 1263",
        "Satellite Number": 1263,
        "Semi-Major Axis(m)": 7083131.272910544,
        "Time(s)": 80
    },
    {
        "Altitude(m)": 702971.5022274811,
        "Argument of Periapsis(deg)": 0.004855788505877855,
        "Eccentricity": 0.0,
        "Inclination(deg)": 45.0,
        "Latitude(deg)": 19.31228012157921,
        "Longitude(deg)": -15.71114156245948,
        "Mean Anomaly(deg)": -207.8105076397582,
        "RAAN(deg)": 284.9954162775889,
        "Satellite Name": "Constellation 1 1263",
        "Satellite Number": 1263,
        "Semi-Major Axis(m)": 7083131.272910544,
        "Time(s)": 81
    },
    {
        "Altitude(m)": 702968.4603941345,
        "Argument of Periapsis(deg)": 0.00491573651212326,
        "Eccentricity": 0.0,
        "Inclination(deg)": 45.0,
        "Latitude(deg)": 19.27179528846722,
        "Longitude(deg)": -15.667158399018298,
        "Mean Anomaly(deg)": -207.74980649950822,
        "RAAN(deg)": 284.9953596884233,
        "Satellite Name": "Constellation 1 1263",
        "Satellite Number": 1263,
        "Semi-Major Axis(m)": 7083131.272910544,
        "Time(s)": 82
    },
    {
        "Altitude(m)": 702965.4330332604,
        "Argument of Periapsis(deg)": 0.004975684518368666,
        "Eccentricity": 0.0,
        "Inclination(deg)": 45.0,
        "Latitude(deg)": 19.231297653278613,
        "Longitude(deg)": -15.623198693295324,
        "Mean Anomaly(deg)": -207.68910535925838,
        "RAAN(deg)": 284.9953030992577,
        "Satellite Name": "Constellation 1 1263",
        "Satellite Number": 1263,
        "Semi-Major Axis(m)": 7083131.272910544,
        "Time(s)": 83
    },
    {
        "Altitude(m)": 702962.4201754138,
        "Argument of Periapsis(deg)": 0.005035632524614072,
        "Eccentricity": 0.0,
        "Inclination(deg)": 45.0,
        "Latitude(deg)": 19.19078725109928,
        "Longitude(deg)": -15.5792625557419,
        "Mean Anomaly(deg)": -207.62840421900853,
        "RAAN(deg)": 284.99524651009216,
        "Satellite Name": "Constellation 1 1263",
        "Satellite Number": 1263,
        "Semi-Major Axis(m)": 7083131.272910544,
        "Time(s)": 84
    },
    {
        "Altitude(m)": 702959.4218510953,
        "Argument of Periapsis(deg)": 0.0050955805308594785,
        "Eccentricity": 0.0,
        "Inclination(deg)": 45.0,
        "Latitude(deg)": 19.150264116968888,
        "Longitude(deg)": -15.535349928741967,
        "Mean Anomaly(deg)": -207.56770307875854,
        "RAAN(deg)": 284.9951899209266,
        "Satellite Name": "Constellation 1 1263",
        "Satellite Number": 1263,
        "Semi-Major Axis(m)": 7083131.272910544,
        "Time(s)": 85
    },
    {
        "Altitude(m)": 702956.438090738,
        "Argument of Periapsis(deg)": 0.005155528537104883,
        "Eccentricity": 0.0,
        "Inclination(deg)": 45.0,
        "Latitude(deg)": 19.109728285880877,
        "Longitude(deg)": -15.491460754709072,
        "Mean Anomaly(deg)": -207.5070019385087,
        "RAAN(deg)": 284.99513333176105,
        "Satellite Name": "Constellation 1 1263",
        "Satellite Number": 1263,
        "Semi-Major Axis(m)": 7083131.272910544,
        "Time(s)": 86
    },
    {
        "Altitude(m)": 702953.4689247404,
        "Argument of Periapsis(deg)": 0.0052154765433502885,
        "Eccentricity": 0.0,
        "Inclination(deg)": 45.0,
        "Latitude(deg)": 19.069179792782208,
        "Longitude(deg)": -15.44759497608591,
        "Mean Anomaly(deg)": -207.44630079825876,
        "RAAN(deg)": 284.9950767425955,
        "Satellite Name": "Constellation 1 1263",
        "Satellite Number": 1263,
        "Semi-Major Axis(m)": 7083131.272910544,
        "Time(s)": 87
    },
    {
        "Altitude(m)": 702950.5143834169,
        "Argument of Periapsis(deg)": 0.005275424549595694,
        "Eccentricity": 0.0,
        "Inclination(deg)": 45.0,
        "Latitude(deg)": 19.028618672573966,
        "Longitude(deg)": -15.403752535345246,
        "Mean Anomaly(deg)": -207.38559965800883,
        "RAAN(deg)": 284.99502015342983,
        "Satellite Name": "Constellation 1 1263",
        "Satellite Number": 1263,
        "Semi-Major Axis(m)": 7083131.272910544,
        "Time(s)": 88
    },
    {
        "Altitude(m)": 702947.5744970551,
        "Argument of Periapsis(deg)": 0.0053353725558411,
        "Eccentricity": 0.0,
        "Inclination(deg)": 45.0,
        "Latitude(deg)": 18.988044960110727,
        "Longitude(deg)": -15.359933543085981,
        "Mean Anomaly(deg)": -207.32489851775898,
        "RAAN(deg)": 284.9949635642643,
        "Satellite Name": "Constellation 1 1263",
        "Satellite Number": 1263,
        "Semi-Major Axis(m)": 7083131.272910544,
        "Time(s)": 89
    },
    {
        "Altitude(m)": 702944.6492958638,
        "Argument of Periapsis(deg)": 0.005395320562086505,
        "Eccentricity": 0.0,
        "Inclination(deg)": 45.0,
        "Latitude(deg)": 18.947458690202136,
        "Longitude(deg)": -15.316137605645856,
        "Mean Anomaly(deg)": -207.26419737750905,
        "RAAN(deg)": 284.99490697509873,
        "Satellite Name": "Constellation 1 1263",
        "Satellite Number": 1263,
        "Semi-Major Axis(m)": 7083131.272910544,
        "Time(s)": 90
    },
    {
        "Altitude(m)": 702941.7388100006,
        "Argument of Periapsis(deg)": 0.00545526856833191,
        "Eccentricity": 0.0,
        "Inclination(deg)": 45.0,
        "Latitude(deg)": 18.906859897611163,
        "Longitude(deg)": -15.27236483368356,
        "Mean Anomaly(deg)": -207.20349623725923,
        "RAAN(deg)": 284.9948503859332,
        "Satellite Name": "Constellation 1 1263",
        "Satellite Number": 1263,
        "Semi-Major Axis(m)": 7083131.272910544,
        "Time(s)": 91
    },
    {
        "Altitude(m)": 702938.8430695724,
        "Argument of Periapsis(deg)": 0.005515216574577317,
        "Eccentricity": 0.0,
        "Inclination(deg)": 45.0,
        "Latitude(deg)": 18.866248617055305,
        "Longitude(deg)": -15.2286151697902,
        "Mean Anomaly(deg)": -207.14279509700927,
        "RAAN(deg)": 284.99479379676757,
        "Satellite Name": "Constellation 1 1263",
        "Satellite Number": 1263,
        "Semi-Major Axis(m)": 7083131.272910544,
        "Time(s)": 92
    },
    {
        "Altitude(m)": 702935.9621046203,
        "Argument of Periapsis(deg)": 0.005575164580822722,
        "Eccentricity": 0.0,
        "Inclination(deg)": 45.0,
        "Latitude(deg)": 18.82562488320673,
        "Longitude(deg)": -15.18488855658713,
        "Mean Anomaly(deg)": -207.08209395675942,
        "RAAN(deg)": 284.99473720760204,
        "Satellite Name": "Constellation 1 1263",
        "Satellite Number": 1263,
        "Semi-Major Axis(m)": 7083131.272910544,
        "Time(s)": 93
    },
    {
        "Altitude(m)": 702933.0959451329,
        "Argument of Periapsis(deg)": 0.005635112587068129,
        "Eccentricity": 0.0,
        "Inclination(deg)": 45.0,
        "Latitude(deg)": 18.78498873069187,
        "Longitude(deg)": -15.141184936725178,
        "Mean Anomaly(deg)": -207.02139281650952,
        "RAAN(deg)": 284.99468061843646,
        "Satellite Name": "Constellation 1 1263",
        "Satellite Number": 1263,
        "Semi-Major Axis(m)": 7083131.272910544,
        "Time(s)": 94
    }
]